{
  "norad_id": 55151,
  "name": "ONEWEB-0572",
  "history": [
    {
      "epoch": "2026-03-28T21:00:11.060928Z",
      "apogee_km": 1195.2170568882775,
      "perigee_km": 1192.203310272269,
      "latitude_deg": 2.5126295860065688e-05,
      "longitude_deg": -119.52038774431186,
      "height_km": 1196.171173345648,
      "semi_major_axis_km": 7571.847183580273,
      "eccentricity": 0.00019901,
      "inclination_deg": 87.9175,
      "raan_deg": 21.815,
      "arg_perigee_deg": 73.2491,
      "mean_anomaly_deg": 286.8859,
      "mean_motion_rev_day": 13.17649803
    },
    {
      "epoch": "2026-03-29T04:17:34.635840Z",
      "apogee_km": 1195.2033226910762,
      "perigee_km": 1192.2185002443748,
      "latitude_deg": -5.509638195728328e-05,
      "longitude_deg": 130.77169578330472,
      "height_km": 1196.1737820651051,
      "semi_major_axis_km": 7571.847911467725,
      "eccentricity": 0.0001971,
      "inclination_deg": 87.9175,
      "raan_deg": 21.7547,
      "arg_perigee_deg": 73.1555,
      "mean_anomaly_deg": 286.9792,
      "mean_motion_rev_day": 13.17649613
    },
    {
      "epoch": "2026-03-30T02:09:45.147168Z",
      "apogee_km": 1195.188062544622,
      "perigee_km": 1192.2320134609854,
      "latitude_deg": -5.2510363214932605e-06,
      "longitude_deg": 161.6489489057064,
      "height_km": 1196.1682363325535,
      "semi_major_axis_km": 7571.847038002803,
      "eccentricity": 0.0001952,
      "inclination_deg": 87.9176,
      "raan_deg": 21.5739,
      "arg_perigee_deg": 72.7958,
      "mean_anomaly_deg": 287.3387,
      "mean_motion_rev_day": 13.17649841
    },
    {
      "epoch": "2026-03-30T05:48:26.950176Z",
      "apogee_km": 1195.1802023145538,
      "perigee_km": 1192.242930818611,
      "latitude_deg": 3.6916740514142915e-05,
      "longitude_deg": 106.79487882316106,
      "height_km": 1196.1712301501473,
      "semi_major_axis_km": 7571.848566566582,
      "eccentricity": 0.00019396,
      "inclination_deg": 87.9176,
      "raan_deg": 21.5437,
      "arg_perigee_deg": 72.7416,
      "mean_anomaly_deg": 287.3928,
      "mean_motion_rev_day": 13.17649442
    },
    {
      "epoch": "2026-03-30T13:05:50.481024Z",
      "apogee_km": 1195.1772415507194,
      "perigee_km": 1192.242696539396,
      "latitude_deg": 5.6944317142869856e-05,
      "longitude_deg": -2.9128496109672932,
      "height_km": 1196.1699822503713,
      "semi_major_axis_km": 7571.846969045057,
      "eccentricity": 0.00019378,
      "inclination_deg": 87.9177,
      "raan_deg": 21.4834,
      "arg_perigee_deg": 72.7393,
      "mean_anomaly_deg": 287.3951,
      "mean_motion_rev_day": 13.17649859
    },
    {
      "epoch": "2026-03-30T18:33:53.127648Z",
      "apogee_km": 1195.168927510601,
      "perigee_km": 1192.2522518190617,
      "latitude_deg": 1.0686874056504267e-05,
      "longitude_deg": -85.19361683599337,
      "height_km": 1196.1680491967386,
      "semi_major_axis_km": 7571.847589664831,
      "eccentricity": 0.0001926,
      "inclination_deg": 87.9177,
      "raan_deg": 21.4382,
      "arg_perigee_deg": 72.5238,
      "mean_anomaly_deg": 287.6104,
      "mean_motion_rev_day": 13.17649697
    },
    {
      "epoch": "2026-03-31T12:47:21.944832Z",
      "apogee_km": 1195.1683553323019,
      "perigee_km": 1192.2527397156528,
      "latitude_deg": -4.298186216318526e-05,
      "longitude_deg": 0.5371499719803513,
      "height_km": 1196.1601227574085,
      "semi_major_axis_km": 7571.847547523977,
      "eccentricity": 0.00019253,
      "inclination_deg": 87.918,
      "raan_deg": 21.2875,
      "arg_perigee_deg": 72.1914,
      "mean_anomaly_deg": 287.9427,
      "mean_motion_rev_day": 13.17649708
    },
    {
      "epoch": "2026-04-01T12:28:53.360256Z",
      "apogee_km": 1195.1537578348552,
      "perigee_km": 1192.2643413823243,
      "latitude_deg": -1.6012748649961206e-05,
      "longitude_deg": 3.9875563208703726,
      "height_km": 1196.1549091145464,
      "semi_major_axis_km": 7571.84604960859,
      "eccentricity": 0.0001908,
      "inclination_deg": 87.9182,
      "raan_deg": 21.0918,
      "arg_perigee_deg": 71.8681,
      "mean_anomaly_deg": 288.2658,
      "mean_motion_rev_day": 13.17650099
    },
    {
      "epoch": "2026-04-02T17:38:27.525984Z",
      "apogee_km": 1195.143664530313,
      "perigee_km": 1192.2769631372958,
      "latitude_deg": 7.435097901288975e-05,
      "longitude_deg": -74.8431342273973,
      "height_km": 1196.1544170200764,
      "semi_major_axis_km": 7571.847313833804,
      "eccentricity": 0.0001893,
      "inclination_deg": 87.9182,
      "raan_deg": 20.851,
      "arg_perigee_deg": 71.6448,
      "mean_anomaly_deg": 288.489,
      "mean_motion_rev_day": 13.17649769
    },
    {
      "epoch": "2026-04-02T17:38:27.526848Z",
      "apogee_km": 1195.14336165642,
      "perigee_km": 1192.2772660111887,
      "latitude_deg": 7.873937400676677e-05,
      "longitude_deg": -74.84313767854228,
      "height_km": 1196.1545124127815,
      "semi_major_axis_km": 7571.847313833804,
      "eccentricity": 0.00018926,
      "inclination_deg": 87.9182,
      "raan_deg": 20.851,
      "arg_perigee_deg": 71.6448,
      "mean_anomaly_deg": 288.489,
      "mean_motion_rev_day": 13.17649769
    },
    {
      "epoch": "2026-04-03T19:09:19.733184Z",
      "apogee_km": 1195.1545190392317,
      "perigee_km": 1192.256017818877,
      "latitude_deg": 6.124287785454905e-07,
      "longitude_deg": -98.81931013286314,
      "height_km": 1196.1533554131386,
      "semi_major_axis_km": 7571.842268429054,
      "eccentricity": 0.0001914,
      "inclination_deg": 87.9181,
      "raan_deg": 20.6402,
      "arg_perigee_deg": 72.0201,
      "mean_anomaly_deg": 288.1139,
      "mean_motion_rev_day": 13.17651086
    },
    {
      "epoch": "2026-04-04T06:05:25.041120Z",
      "apogee_km": 1195.131733695558,
      "perigee_km": 1192.2816917220953,
      "latitude_deg": -2.6192913025963708e-05,
      "longitude_deg": 96.61909564382199,
      "height_km": 1196.157361465115,
      "semi_major_axis_km": 7571.843712708826,
      "eccentricity": 0.0001882,
      "inclination_deg": 87.9181,
      "raan_deg": 20.5498,
      "arg_perigee_deg": 71.8095,
      "mean_anomaly_deg": 288.3241,
      "mean_motion_rev_day": 13.17650709
    },
    {
      "epoch": "2026-04-05T13:04:19.951104Z",
      "apogee_km": 1195.0995372882662,
      "perigee_km": 1192.3130989471993,
      "latitude_deg": 5.179575634116143e-05,
      "longitude_deg": -9.638377039672108,
      "height_km": 1196.1628529267896,
      "semi_major_axis_km": 7571.843318117732,
      "eccentricity": 0.000184,
      "inclination_deg": 87.9182,
      "raan_deg": 20.2935,
      "arg_perigee_deg": 71.6317,
      "mean_anomaly_deg": 288.5015,
      "mean_motion_rev_day": 13.17650812
    },
    {
      "epoch": "2026-04-05T18:32:22.608096Z",
      "apogee_km": 1195.102132192831,
      "perigee_km": 1192.31266471644,
      "latitude_deg": 4.025722712150527e-05,
      "longitude_deg": -91.91918699829756,
      "height_km": 1196.1614279485295,
      "semi_major_axis_km": 7571.844398454635,
      "eccentricity": 0.0001842,
      "inclination_deg": 87.9183,
      "raan_deg": 20.2483,
      "arg_perigee_deg": 71.5439,
      "mean_anomaly_deg": 288.5893,
      "mean_motion_rev_day": 13.1765053
    },
    {
      "epoch": "2026-04-06T03:39:06.957504Z",
      "apogee_km": 1195.1029402749245,
      "perigee_km": 1192.3115041839574,
      "latitude_deg": -5.583601297869072e-06,
      "longitude_deg": 130.94639170366912,
      "height_km": 1196.1671943591207,
      "semi_major_axis_km": 7571.844222229441,
      "eccentricity": 0.00018433,
      "inclination_deg": 87.9183,
      "raan_deg": 20.1729,
      "arg_perigee_deg": 71.8143,
      "mean_anomaly_deg": 288.3189,
      "mean_motion_rev_day": 13.17650576
    }
  ]
}